CCSDS_OPM_VERS = 2.0
CREATION_DATE = 2020-09-10T18:17:08.083257
ORIGINATOR = N/A

META_START
OBJECT_NAME          = ISS (ZARYA)
OBJECT_ID            = 1998-067A
CENTER_NAME          = EARTH
REF_FRAME            = TEME
TIME_SYSTEM          = UTC
META_STOP

COMMENT  State Vector
EPOCH                = 2008-09-20T12:25:40.104192
X                    =  4086.147180 [km]
Y                    =  -994.936814 [km]
Z                    =  5250.678791 [km]
X_DOT                =     2.511071 [km/s]
Y_DOT                =     7.255240 [km/s]
Z_DOT                =    -0.583165 [km/s]

COMMENT  Keplerian elements
SEMI_MAJOR_AXIS      =  6730.963463 [km]
ECCENTRICITY         =     0.000670
INCLINATION          =    51.641600 [deg]
RA_OF_ASC_NODE       =   247.462700 [deg]
ARG_OF_PERICENTER    =   130.536000 [deg]
TRUE_ANOMALY         =   324.984745 [deg]
GM                   = 398600.9368 [km**3/s**2]

COV_REF_FRAME        = RSW
CX_X                 =  5.801003223606e-05
CY_X                 = -1.847351051866e-04
CY_Y                 =  9.986624774985e-04
CZ_X                 =  1.111847659547e-04
CZ_Y                 = -4.879101406561e-04
CZ_Z                 =  2.778976164723e-04
CX_DOT_X             =  1.582650652875e-07
CX_DOT_Y             = -7.586297373469e-07
CX_DOT_Z             =  3.543610952644e-07
CX_DOT_X_DOT         =  6.486215267840e-10
CY_DOT_X             =  5.260803720540e-08
CY_DOT_Y             = -4.760037412217e-07
CY_DOT_Z             =  2.366232269229e-07
CY_DOT_X_DOT         =  2.749672081730e-10
CY_DOT_Y_DOT         =  3.431248870308e-10
CZ_DOT_X             =  7.384496415794e-08
CZ_DOT_Y             = -6.427050770117e-08
CZ_DOT_Z             =  5.041463666902e-08
CZ_DOT_X_DOT         =  1.594165092703e-10
CZ_DOT_Y_DOT         = -1.283023844744e-10
CZ_DOT_Z_DOT         =  2.370516905109e-10
